SKYSAT-A                
1 39418U 13066C   26192.06564227  .00001644  00000+0  96068-4 0  9990
2 39418  97.3805 240.7017 0020122 228.3568 131.5941 15.13102101692096
SKYSAT-B                
1 40072U 14037D   26190.44965851  .00000906  00000+0  10519-3 0  9991
2 40072  98.3850 150.6859 0005112 191.8576 168.2520 14.88083411649278
SKYSAT-C1               
1 41601U 16040C   26192.05230572  .00005431  00000+0  15359-3 0  9995
2 41601  96.9558 222.4825 0000717 359.4665   0.6579 15.36701959561537
SKYSAT-C4               
1 41771U 16058B   26191.84734605  .00011381  00000+0  20937-3 0  9993
2 41771  96.9170 212.6388 0003311 124.5912 235.5653 15.49338612549139
SKYSAT-C5               
1 41772U 16058C   26190.92648947  .00007436  00000+0  22860-3 0  9998
2 41772  97.0465 230.5527 0002034 135.3938 224.7470 15.33955160547234
SKYSAT-C2               
1 41773U 16058D   26191.48618128  .00008725  00000+0  20244-3 0  9995
2 41773  97.0164 212.7103 0002034  13.3625 346.7677 15.42607580548641
SKYSAT-C3               
1 41774U 16058E   26191.01715193  .00018005  00000+0  28437-3 0  9999
2 41774  96.9003 220.9981 0002189 133.5121 226.6316 15.53540793549656
SKYSAT-C11              
1 42987U 17068A   26190.65835404  .00021499  00000+0  27645-3 0  9996
2 42987  97.4368 340.4901 0000812 166.0165 194.1114 15.59105762486747
SKYSAT-C10              
1 42988U 17068B   26190.65457372  .00007814  00000+0  23222-3 0  9993
2 42988  97.4523 327.7297 0001360 109.0541 251.0850 15.35042344485807
SKYSAT-C9               
1 42989U 17068C   26192.18672867  .00008274  00000+0  19496-3 0  9991
2 42989  97.4444 330.4450 0008945  57.4451 302.7659 15.42149851486456
SKYSAT-C8               
1 42990U 17068D   26190.65650340  .00007514  00000+0  20712-3 0  9994
2 42990  97.4543 327.6181 0001224  99.9689 260.1694 15.37418486485760
SKYSAT-C7               
1 42991U 17068E   26192.08274653  .00006437  00000+0  17785-3 0  9992
2 42991  97.4553 330.0557 0006075  35.1418 325.0226 15.37390204486049
SKYSAT-C6               
1 42992U 17068F   26192.14907779  .00005579  00000+0  17135-3 0  9997
2 42992  97.4591 329.9947 0005167  99.1349 261.0479 15.34124750485996
SKYSAT-C12              
1 43797U 18099AR  26192.18604948  .00011363  00000+0  20638-3 0  9992
2 43797  96.9259 214.4679 0005616  79.1051 281.0833 15.49693402425577
